ORBCOMM FM24            
1 25478U 98053D   25166.01404750  .00000890  00000+0  33756-3 0  9995
2 25478  45.0085 279.4012 0003901 215.5231 144.5358 14.38099170397413
ORBCOMM FM25            
1 25479U 98053E   25165.70747062  .00000881  00000+0  33467-3 0  9996
2 25479  45.0077 279.1252 0006132 225.8479 134.1866 14.38073229397387
ORBCOMM FM26            
1 25480U 98053F   25165.64781169  .00000659  00000+0  26687-3 0  9996
2 25480  45.0071 275.8476 0007717 242.1520 117.8546 14.37134620397287
ORBCOMM FM27            
1 25481U 98053G   25165.62576766  .00000936  00000+0  35248-3 0  9991
2 25481  45.0060 279.7167 0002439 215.7940 144.2745 14.38102305397342
ORBCOMM FM28            
1 25482U 98053H   25165.87210021  .00000605  00000+0  24324-3 0  9994
2 25482  45.0042 216.0521 0006654 274.8532  85.1556 14.38290200398196
ORBCOMM FM30            
1 25980U 99065A   25166.19417930  .00000769  00000+0  30278-3 0  9991
2 25980  45.0313  99.1473 0007893 352.3770   7.6957 14.37298826334698
ORBCOMM FM31            
1 25981U 99065B   25166.16737720  .00000754  00000+0  29822-3 0  9998
2 25981  45.0227  92.7638 0004947   9.5010 350.5931 14.37236197334684
ORBCOMM FM32            
1 25982U 99065C   25166.21251891  .00000760  00000+0  30593-3 0  9999
2 25982  45.0151 109.1152 0007241   7.2554 352.8398 14.36281952334447
